0 IRIDIUM 33 DEB
1 34540U 97051JH  13283.02748339  .00001468  00000-0  41201-3 0  2781
2 34540 086.3247 106.0704 0030595 022.1320 102.6668 14.45100973244449
0 IRIDIUM 33 DEB
1 34540U 97051JH  13286.00531642  .00001503  00000-0  42199-3 0  2809
2 34540 086.3246 104.7786 0030275 012.1597 114.5548 14.45109667244878
0 IRIDIUM 33 DEB
1 34540U 97051JH  13287.51433794  .00001682  00000-0  47307-3 0  2810
2 34540 086.3247 104.1238 0030150 006.9643 045.2720 14.45114159245099
0 IRIDIUM 33 DEB
1 34540U 97051JH  13288.70502334  .00002090  00000-0  58892-3 0  2825
2 34540 086.3249 103.6072 0029992 002.9973 119.7336 14.45120397245265
0 IRIDIUM 33 DEB
1 34540U 97051JH  13289.95173674  .00001956  00000-0  55080-3 0  2831
2 34540 086.3251 103.0663 0029853 358.7426 125.7972 14.45125831245440
0 IRIDIUM 33 DEB
1 34540U 97051JH  13290.99115769  .00001923  00000-0  54149-3 0  2848
2 34540 086.3252 102.6153 0029764 355.1389 133.4933 14.45129832245594
0 IRIDIUM 33 DEB
1 34540U 97051JH  13292.22275159  .00002143  00000-0  60402-3 0  2851
2 34540 086.3253 102.0810 0029621 350.9740 060.9044 14.45133307245774
0 IRIDIUM 33 DEB
1 34540U 97051JH  13293.74730389  .00002335  00000-0  65868-3 0  2865
2 34540 086.3256 101.4196 0029501 345.6766 072.6102 14.45139076245991
0 IRIDIUM 33 DEB
1 34540U 97051JH  13294.94445400  .00002803  00000-0  79170-3 0  2877
2 34540 086.3258 100.9003 0029563 341.8486 180.6522 14.45142236246167
0 IRIDIUM 33 DEB
1 34540U 97051JH  13296.16917000  .00003058  00000-0  86409-3 0  2880
2 34540 086.3258 100.3691 0029468 337.5905 072.4639 14.45147798246341
